LYNK TOWER 5            
1 59121U 24043Z   26068.92489786  .00009048  00000+0  31902-3 0  9994
2 59121  97.5458 204.7305 0010406 234.6422 125.3846 15.29454506111860
STARLINK-34617          
1 65015U 25161A   26068.93315696  .00027845  00000+0  94902-3 0  9998
2 65015  53.1597 293.3241 0001310 156.9847 203.1213 15.30189867 34263
